[{"OBJECT_NAME":"STARLINK-1526","OBJECT_ID":"2020-055C","EPOCH":"2026-03-10T00:00:02.999808","MEAN_MOTION":15.19094638,"ECCENTRICITY":8.938e-5,"INCLINATION":53.1067,"RA_OF_ASC_NODE":124.7929,"ARG_OF_PERICENTER":56.7447,"MEAN_ANOMALY":353.5398,"EPHEMERIS_TYPE":0,"CLASSIFICATION_TYPE":"U","NORAD_CAT_ID":46029,"ELEMENT_SET_NO":999,"REV_AT_EPOCH":569,"BSTAR":0.0056326704,"MEAN_MOTION_DOT":0.00121352,"MEAN_MOTION_DDOT":0},{"OBJECT_NAME":"OBJECT AK","OBJECT_ID":"2025-313AK","EPOCH":"2026-03-09T22:15:06.103872","MEAN_MOTION":15.21477682,"ECCENTRICITY":0.00118476,"INCLINATION":97.3947,"RA_OF_ASC_NODE":145.1584,"ARG_OF_PERICENTER":356.5328,"MEAN_ANOMALY":3.5824,"EPHEMERIS_TYPE":0,"CLASSIFICATION_TYPE":"U","NORAD_CAT_ID":67281,"ELEMENT_SET_NO":999,"REV_AT_EPOCH":1085,"BSTAR":0.00031140912,"MEAN_MOTION_DOT":6.947e-5,"MEAN_MOTION_DDOT":0}]
